[{"OBJECT_NAME":"SENTINEL-2B","OBJECT_ID":"2017-013A","EPOCH":"2026-03-09T23:26:28.535424","MEAN_MOTION":14.30819717,"ECCENTRICITY":0.00011315,"INCLINATION":98.565,"RA_OF_ASC_NODE":145.1663,"ARG_OF_PERICENTER":94.2934,"MEAN_ANOMALY":265.8378,"EPHEMERIS_TYPE":0,"CLASSIFICATION_TYPE":"U","NORAD_CAT_ID":42063,"ELEMENT_SET_NO":999,"REV_AT_EPOCH":47045,"BSTAR":3.8552046e-5,"MEAN_MOTION_DOT":5.7e-7,"MEAN_MOTION_DDOT":0},{"OBJECT_NAME":"COSMOS 1867 COOLANT","OBJECT_ID":"1987-060AC","EPOCH":"2026-03-06T03:44:37.111776","MEAN_MOTION":14.33738346,"ECCENTRICITY":0.0013777,"INCLINATION":65.006,"RA_OF_ASC_NODE":300.2264,"ARG_OF_PERICENTER":279.7743,"MEAN_ANOMALY":80.1787,"EPHEMERIS_TYPE":0,"CLASSIFICATION_TYPE":"U","NORAD_CAT_ID":39665,"ELEMENT_SET_NO":999,"REV_AT_EPOCH":61251,"BSTAR":0.00014848031,"MEAN_MOTION_DOT":3.13e-6,"MEAN_MOTION_DDOT":0}]
